{
  "norad_id": 55962,
  "name": "STARLINK-5906",
  "history": [
    {
      "epoch": "2026-04-11T11:52:32.016000Z",
      "apogee_km": 574.1556382164672,
      "perigee_km": 569.6645177946602,
      "latitude_deg": 7.383483173032201e-05,
      "longitude_deg": 164.02893678595893,
      "height_km": 574.4419918586506,
      "semi_major_axis_km": 6950.047078005564,
      "eccentricity": 0.0003231,
      "inclination_deg": 70.0002,
      "raan_deg": 181.8758,
      "arg_perigee_deg": 267.3413,
      "mean_anomaly_deg": 92.7377,
      "mean_motion_rev_day": 14.98377153
    },
    {
      "epoch": "2026-04-13T07:08:12.621984Z",
      "apogee_km": 574.1460278042005,
      "perigee_km": 569.8771075509603,
      "latitude_deg": -1.3786505746189117e-05,
      "longitude_deg": -131.21106526722724,
      "height_km": 574.4019973092009,
      "semi_major_axis_km": 6950.14856767758,
      "eccentricity": 0.00030711,
      "inclination_deg": 70.0,
      "raan_deg": 177.3317,
      "arg_perigee_deg": 270.9961,
      "mean_anomaly_deg": 89.0846,
      "mean_motion_rev_day": 14.98344333
    },
    {
      "epoch": "2026-04-14T15:10:54.486048Z",
      "apogee_km": 574.4504843254681,
      "perigee_km": 569.7229421557222,
      "latitude_deg": 3.989250577738722e-05,
      "longitude_deg": 103.43148209642102,
      "height_km": 574.1228479881241,
      "semi_major_axis_km": 6950.223713240594,
      "eccentricity": 0.0003401,
      "inclination_deg": 69.9998,
      "raan_deg": 173.9647,
      "arg_perigee_deg": 279.5354,
      "mean_anomaly_deg": 80.5421,
      "mean_motion_rev_day": 14.98320033
    },
    {
      "epoch": "2026-04-15T13:36:47.623104Z",
      "apogee_km": 574.2639590984918,
      "perigee_km": 569.8839361592964,
      "latitude_deg": 1.1718192246271322e-05,
      "longitude_deg": 123.68314321667401,
      "height_km": 574.3402503205954,
      "semi_major_axis_km": 6950.210947628894,
      "eccentricity": 0.0003151,
      "inclination_deg": 69.9998,
      "raan_deg": 171.609,
      "arg_perigee_deg": 274.2224,
      "mean_anomaly_deg": 85.8575,
      "mean_motion_rev_day": 14.98324161
    },
    {
      "epoch": "2026-04-16T13:38:48.837984Z",
      "apogee_km": 574.1475334397719,
      "perigee_km": 570.0107647878194,
      "latitude_deg": 1.527147836920942e-05,
      "longitude_deg": 119.66485665710698,
      "height_km": 574.0100317877823,
      "semi_major_axis_km": 6950.216149113796,
      "eccentricity": 0.0002976,
      "inclination_deg": 70.0002,
      "raan_deg": 169.0828,
      "arg_perigee_deg": 283.886,
      "mean_anomaly_deg": 76.1968,
      "mean_motion_rev_day": 14.98322479
    },
    {
      "epoch": "2026-04-17T21:41:30.113664Z",
      "apogee_km": 573.8766334290985,
      "perigee_km": 570.2537710291635,
      "latitude_deg": 5.953405375368344e-05,
      "longitude_deg": -5.690540584420944,
      "height_km": 574.4806481369517,
      "semi_major_axis_km": 6950.20220222913,
      "eccentricity": 0.00026063,
      "inclination_deg": 70.0017,
      "raan_deg": 165.7154,
      "arg_perigee_deg": 270.3707,
      "mean_anomaly_deg": 89.7154,
      "mean_motion_rev_day": 14.98326989
    },
    {
      "epoch": "2026-04-18T13:42:50.122080Z",
      "apogee_km": 574.3096095858509,
      "perigee_km": 569.8017146252087,
      "latitude_deg": 6.771296341216842e-05,
      "longitude_deg": 111.63728470395235,
      "height_km": 574.3240902378234,
      "semi_major_axis_km": 6950.19266210553,
      "eccentricity": 0.0003243,
      "inclination_deg": 69.9996,
      "raan_deg": 164.0346,
      "arg_perigee_deg": 274.0502,
      "mean_anomaly_deg": 86.0287,
      "mean_motion_rev_day": 14.98330074
    }
  ]
}